NORAD_CAT_ID,OBJECT_NAME,OBJECT_TYPE,EPOCH,MEAN_MOTION,ECCENTRICITY,INCLINATION,RA_OF_ASC_NODE,ARG_OF_PERICENTER,MEAN_ANOMALY,BSTAR,MEAN_MOTION_DOT,MEAN_MOTION_DDOT,TLE_LINE0,TLE_LINE1,TLE_LINE2,SEMIMAJOR_AXIS,PERIOD,APOGEE,PERIGEE,DECAYED
52335.0,STARLINK-3814,PAYLOAD,2023-08-01 02:26:13,15.0883573,0.0001167,53.2164,160.9671,88.3876,271.725,-3.1944e-05,-7.96e-06,0.0,0 STARLINK-3814,1 52335U 22045E   23213.10154234 -.00000796  00000-0 -31944-4 0  9991,2 52335  53.2164 160.9671 0001167  88.3876 271.7250 15.08835730 71985,6917.893,95.438,540.566,538.951,0.0
52335.0,STARLINK-3814,PAYLOAD,2023-08-02 05:27:46,15.08840444,0.0001293,53.2174,155.9108,89.066,271.0481,6.7261e-05,7.83e-06,0.0,0 STARLINK-3814,1 52335U 22045E   23214.22761977  .00000783  00000-0  67261-4 0  9998,2 52335  53.2174 155.9108 0001293  89.0660 271.0481 15.08840444 72151,6917.879,95.438,540.639,538.85,0.0
52335.0,STARLINK-3814,PAYLOAD,2023-08-03 02:07:47,15.08825627,0.0001427,53.2164,152.0469,83.1902,276.9253,0.00030277,4.532e-05,0.0,0 STARLINK-3814,1 52335U 22045E   23215.08874149  .00004532  00000-0  30277-3 0  9991,2 52335  53.2164 152.0469 0001427  83.1902 276.9253 15.08825627 72282,6917.924,95.438,540.777,538.802,0.0
52335.0,STARLINK-3814,PAYLOAD,2023-08-04 05:09:20,15.0883878,0.0001361,53.2168,146.9896,85.5563,274.5585,-1.5452e-05,-5.34e-06,0.0,0 STARLINK-3814,1 52335U 22045E   23216.21482608 -.00000534  00000-0 -15452-4 0  9991,2 52335  53.2168 146.9896 0001361  85.5563 274.5585 15.08838780 72453,6917.884,95.438,540.691,538.808,0.0
52335.0,STARLINK-3814,PAYLOAD,2023-08-05 01:49:21,15.08849825,0.0001358,53.2177,143.122,103.1577,256.9566,-2.1911e-06,-3.23e-06,0.0,0 STARLINK-3814,1 52335U 22045E   23217.07593767 -.00000323  00000-0 -21911-5 0  9999,2 52335  53.2177 143.1220 0001358 103.1577 256.9566 15.08849825 72580,6917.85,95.437,540.655,538.776,0.0
52335.0,STARLINK-3814,PAYLOAD,2023-08-06 03:15:31,15.08839956,0.000102,53.2168,138.3661,113.6279,246.4821,6.5457e-06,-1.84e-06,0.0,0 STARLINK-3814,1 52335U 22045E   23218.13578033 -.00000184  00000-0  65457-5 0  9993,2 52335  53.2168 138.3661 0001020 113.6279 246.4821 15.08839956 72746,6917.881,95.438,540.451,539.04,0.0
52335.0,STARLINK-3814,PAYLOAD,2023-08-06 11:12:27,15.08829413,9.68e-05,53.2168,136.88,108.8237,251.2861,-7.5343e-05,-1.486e-05,0.0,0 STARLINK-3814,1 52335U 22045E   23218.46699043 -.00001486  00000-0 -75343-4 0  9995,2 52335  53.2168 136.8800 0000968 108.8237 251.2861 15.08829413 72794,6917.913,95.438,540.447,539.108,0.0
52335.0,STARLINK-3814,PAYLOAD,2023-08-08 01:21:42,15.08845107,0.0001035,53.2172,129.7488,125.329,234.7799,0.00014364,1.999e-05,0.0,0 STARLINK-3814,1 52335U 22045E   23220.05673843  .00001999  00000-0  14364-3 0  9995,2 52335  53.2172 129.7488 0001035 125.3290 234.7799 15.08845107 73033,6917.865,95.437,540.446,539.014,0.0
52335.0,STARLINK-3814,PAYLOAD,2023-08-08 17:15:34,15.08833554,0.0001293,53.2182,126.7732,97.1699,262.944,0.00016338,2.313e-05,0.0,0 STARLINK-3814,1 52335U 22045E   23220.71914798  .00002313  00000-0  16338-3 0  9999,2 52335  53.2182 126.7732 0001293  97.1699 262.9440 15.08833554 73138,6917.9,95.438,540.66,538.871,0.0
52335.0,STARLINK-3814,PAYLOAD,2023-08-09 20:17:07,15.08845312,8.91e-05,53.2167,121.7164,96.7068,263.4025,-0.00013469,-2.431e-05,0.0,0 STARLINK-3814,1 52335U 22045E   23221.84523085 -.00002431  00000-0 -13469-3 0  9994,2 52335  53.2167 121.7164 0000891  96.7068 263.4025 15.08845312 73302,6917.864,95.437,540.346,539.113,0.0
52335.0,STARLINK-3814,PAYLOAD,2023-08-10 10:35:35,15.08850417,8.71e-05,53.217,119.0394,96.1525,263.9567,-9.8967e-05,-1.863e-05,0.0,0 STARLINK-3814,1 52335U 22045E   23222.44138321 -.00001863  00000-0 -98967-4 0  9991,2 52335  53.2170 119.0394 0000871  96.1525 263.9567 15.08850417 73398,6917.849,95.437,540.316,539.111,0.0
52335.0,STARLINK-3814,PAYLOAD,2023-08-10 16:57:08,15.08837671,0.0001307,53.2166,117.8508,87.5207,272.5935,-4.4315e-06,-3.58e-06,0.0,0 STARLINK-3814,1 52335U 22045E   23222.70635020 -.00000358  00000-0 -44315-5 0  9995,2 52335  53.2166 117.8508 0001307  87.5207 272.5935 15.08837671 73439,6917.888,95.438,540.657,538.848,0.0
52335.0,STARLINK-3814,PAYLOAD,2023-08-11 02:29:26,15.0884633,8.95e-05,53.2166,116.0663,91.1725,268.937,7.9344e-05,9.75e-06,0.0,0 STARLINK-3814,1 52335U 22045E   23223.10378149  .00000975  00000-0  79344-4 0  9998,2 52335  53.2166 116.0663 0000895  91.1725 268.9370 15.08846330 73499,6917.861,95.437,540.345,539.107,0.0
52335.0,STARLINK-3814,PAYLOAD,2023-08-11 12:01:46,15.08832517,0.0001091,53.2163,114.2821,82.5332,277.5784,4.9511e-05,5e-06,0.0,0 STARLINK-3814,1 52335U 22045E   23223.50123254  .00000500  00000-0  49511-4 0  9994,2 52335  53.2163 114.2821 0001091  82.5332 277.5784 15.08832517 73553,6917.903,95.438,540.523,539.014,0.0
52335.0,STARLINK-3814,PAYLOAD,2023-08-12 16:38:42,15.0883943,8.81e-05,53.2168,108.9299,87.0875,273.0218,8.6974e-05,1.097e-05,0.0,0 STARLINK-3814,1 52335U 22045E   23224.69354954  .00001097  00000-0  86974-4 0  9994,2 52335  53.2168 108.9299 0000881  87.0875 273.0218 15.08839430 73739,6917.882,95.438,540.357,539.138,0.0
52335.0,STARLINK-3814,PAYLOAD,2023-08-13 02:11:00,15.08849827,9.31e-05,53.2167,107.1447,92.0421,268.0678,9.8405e-05,1.279e-05,0.0,0 STARLINK-3814,1 52335U 22045E   23225.09098225  .00001279  00000-0  98405-4 0  9999,2 52335  53.2167 107.1447 0000931  92.0421 268.0678 15.08849827 73794,6917.85,95.437,540.359,539.071,0.0
52335.0,STARLINK-3814,PAYLOAD,2023-08-13 22:51:02,15.08836656,9.73e-05,53.2171,103.2787,94.4654,265.6449,7.7033e-05,9.38e-06,0.0,0 STARLINK-3814,1 52335U 22045E   23225.95211278  .00000938  00000-0  77033-4 0  9994,2 52335  53.2171 103.2787 0000973  94.4654 265.6449 15.08836656 73923,6917.891,95.438,540.429,539.082,0.0
52335.0,STARLINK-3814,PAYLOAD,2023-08-15 01:52:35,15.08847237,0.000104,53.2169,98.224,86.7757,273.3355,6.5951e-05,7.62e-06,0.0,0 STARLINK-3814,1 52335U 22045E   23227.07818746  .00000762  00000-0  65951-4 0  9993,2 52335  53.2169  98.2240 0001040  86.7757 273.3355 15.08847237 74099,6917.858,95.437,540.443,539.004,0.0
52335.0,STARLINK-3814,PAYLOAD,2023-08-16 00:07:59,15.08841735,0.0001123,53.2175,94.0591,80.2269,279.885,7.4813e-05,9.03e-06,0.0,0 STARLINK-3814,1 52335U 22045E   23228.00555263  .00000903  00000-0  74813-4 0  9993,2 52335  53.2175  94.0591 0001123  80.2269 279.8850 15.08841735 74232,6917.875,95.437,540.517,538.963,0.0
52335.0,STARLINK-3814,PAYLOAD,2023-08-17 17:28:02,15.08841777,0.0004709,53.2073,86.3379,63.9839,296.1637,8.8875e-05,1.126e-05,0.0,0 STARLINK-3814,1 52335U 22045E   23229.72780727  .00001126  00000-0  88875-4 0  9999,2 52335  53.2073  86.3379 0004709  63.9839 296.1637 15.08841777 74490,6917.875,95.437,542.998,536.482,0.0
52335.0,STARLINK-3814,PAYLOAD,2023-08-18 09:21:52,15.08847977,0.0003648,53.2103,83.3607,68.1538,291.9842,0.00013305,1.83e-05,0.0,0 STARLINK-3814,1 52335U 22045E   23230.39019606  .00001830  00000-0  13305-3 0  9992,2 52335  53.2103  83.3607 0003648  68.1538 291.9842 15.08847977 74599,6917.856,95.437,542.245,537.197,0.0
52335.0,STARLINK-3814,PAYLOAD,2023-08-18 20:29:35,15.08836229,4.59e-05,53.218,81.2759,117.9081,242.1958,-6.4879e-05,-1.32e-05,0.0,0 STARLINK-3814,1 52335U 22045E   23230.85387931 -.00001320  00000-0 -64879-4 0  9991,2 52335  53.2180  81.2759 0000459 117.9081 242.1958 15.08836229 74664,6917.892,95.438,540.074,539.439,0.0
52335.0,STARLINK-3814,PAYLOAD,2023-08-19 23:31:08,15.08843073,0.0001451,53.2162,76.217,90.631,269.4849,1.3825e-05,-6.8e-07,0.0,0 STARLINK-3814,1 52335U 22045E   23231.97995789 -.00000068  00000-0  13825-4 0  9993,2 52335  53.2162  76.2170 0001451  90.6310 269.4849 15.08843073 74835,6917.871,95.437,540.74,538.732,0.0
52335.0,STARLINK-3814,PAYLOAD,2023-08-21 12:05:00,15.08835476,0.0001047,53.2168,69.3789,101.9947,258.1163,6.4672e-05,7.42e-06,0.0,0 STARLINK-3814,1 52335U 22045E   23233.50348275  .00000742  00000-0  64672-4 0  9990,2 52335  53.2168  69.3789 0001047 101.9947 258.1163 15.08835476 75061,6917.894,95.438,540.484,539.035,0.0
52335.0,STARLINK-3814,PAYLOAD,2023-08-21 20:01:56,15.08843336,0.0001048,53.216,67.892,96.6822,263.429,0.00013078,1.794e-05,0.0,0 STARLINK-3814,1 52335U 22045E   23233.83467808  .00001794  00000-0  13078-3 0  9991,2 52335  53.2160  67.8920 0001048  96.6822 263.4290 15.08843336 75116,6917.87,95.437,540.46,539.01,0.0
52335.0,STARLINK-3814,PAYLOAD,2023-08-22 13:31:10,15.08838464,0.0001029,53.2162,64.6211,95.439,264.672,-4.9502e-07,-2.96e-06,0.0,0 STARLINK-3814,1 52335U 22045E   23234.56332043 -.00000296  00000-0 -49502-6 0  9996,2 52335  53.2162  64.6211 0001029  95.4390 264.6720 15.08838464 75221,6917.885,95.438,540.462,539.038,0.0
52335.0,STARLINK-3814,PAYLOAD,2023-08-24 14:48:08,15.0884114,0.0001095,53.2169,55.4027,87.7291,272.3827,1.1649e-05,-1.02e-06,0.0,0 STARLINK-3814,1 52335U 22045E   23236.61676316 -.00000102  00000-0  11649-4 0  9992,2 52335  53.2169  55.4027 0001095  87.7291 272.3827 15.08841140 75531,6917.877,95.437,540.499,538.984,0.0
52335.0,STARLINK-3814,PAYLOAD,2023-08-25 19:25:04,15.0884747,0.0001198,53.2182,50.0489,80.8057,279.3071,0.00010964,1.458e-05,0.0,0 STARLINK-3814,1 52335U 22045E   23237.80908155  .00001458  00000-0  10964-3 0  9995,2 52335  53.2182  50.0489 0001198  80.8057 279.3071 15.08847470 75717,6917.858,95.437,540.551,538.894,0.0
52335.0,STARLINK-3814,PAYLOAD,2023-08-25 21:00:27,15.088476,0.0001198,53.2182,49.7516,80.8633,279.2495,0.00010761,1.426e-05,0.0,0 STARLINK-3814,1 52335U 22045E   23237.87532121  .00001426  00000-0  10761-3 0  9998,2 52335  53.2182  49.7516 0001198  80.8633 279.2495 15.08847600 75728,6917.857,95.437,540.551,538.893,0.0
52335.0,STARLINK-3814,PAYLOAD,2023-08-26 17:40:28,15.08841884,0.0001184,53.2176,45.886,95.7023,264.4104,8.2523e-05,1.026e-05,0.0,0 STARLINK-3814,1 52335U 22045E   23238.73644443  .00001026  00000-0  82523-4 0  9997,2 52335  53.2176  45.8860 0001184  95.7023 264.4104 15.08841884 75858,6917.875,95.437,540.559,538.921,0.0
